[{"OBJECT_NAME":"STARLINK-36183","OBJECT_ID":"2025-303L","EPOCH":"2026-03-09T00:59:36.332736","MEAN_MOTION":15.27587617,"ECCENTRICITY":0.00017714,"INCLINATION":43.0008,"RA_OF_ASC_NODE":314.5763,"ARG_OF_PERICENTER":267.5782,"MEAN_ANOMALY":92.4867,"EPHEMERIS_TYPE":0,"CLASSIFICATION_TYPE":"U","NORAD_CAT_ID":67173,"ELEMENT_SET_NO":999,"REV_AT_EPOCH":1263,"BSTAR":0.0016612908,"MEAN_MOTION_DOT":0.00045748,"MEAN_MOTION_DDOT":0},{"OBJECT_NAME":"COSMOS 374 DEB","OBJECT_ID":"1970-089CW","EPOCH":"2026-03-09T03:15:05.416704","MEAN_MOTION":14.81622526,"ECCENTRICITY":0.02351408,"INCLINATION":62.872,"RA_OF_ASC_NODE":339.5893,"ARG_OF_PERICENTER":12.2958,"MEAN_ANOMALY":348.3731,"EPHEMERIS_TYPE":0,"CLASSIFICATION_TYPE":"U","NORAD_CAT_ID":14122,"ELEMENT_SET_NO":999,"REV_AT_EPOCH":22578,"BSTAR":0.0042555676,"MEAN_MOTION_DOT":0.00054686,"MEAN_MOTION_DDOT":0}]
